[{"OBJECT_NAME":"ONEWEB-0342","OBJECT_ID":"2021-083Y","EPOCH":"2026-05-10T04:04:00.828192","MEAN_MOTION":13.20771126,"ECCENTRICITY":0.0001783,"INCLINATION":87.9156,"RA_OF_ASC_NODE":282.0202,"ARG_OF_PERICENTER":94.7361,"MEAN_ANOMALY":265.3976,"EPHEMERIS_TYPE":0,"CLASSIFICATION_TYPE":"U","NORAD_CAT_ID":49208,"ELEMENT_SET_NO":999,"REV_AT_EPOCH":23176,"BSTAR":-0.00011020000000000001,"MEAN_MOTION_DOT":-3.2e-07,"MEAN_MOTION_DDOT":0.0},{"OBJECT_NAME":"ONEWEB-0343","OBJECT_ID":"2021-083Z","EPOCH":"2026-05-10T03:13:45.378336","MEAN_MOTION":13.18684329,"ECCENTRICITY":0.0001611,"INCLINATION":87.9186,"RA_OF_ASC_NODE":343.0296,"ARG_OF_PERICENTER":73.5306,"MEAN_ANOMALY":286.6003,"EPHEMERIS_TYPE":0,"CLASSIFICATION_TYPE":"U","NORAD_CAT_ID":49209,"ELEMENT_SET_NO":999,"REV_AT_EPOCH":22502,"BSTAR":-2.2852e-05,"MEAN_MOTION_DOT":4e-08,"MEAN_MOTION_DDOT":0.0},{"OBJECT_NAME":"ONEWEB-0344","OBJECT_ID":"2021-083AA","EPOCH":"2026-05-10T02:34:24.602016","MEAN_MOTION":13.13470855,"ECCENTRICITY":0.0001438,"INCLINATION":87.8938,"RA_OF_ASC_NODE":327.8321,"ARG_OF_PERICENTER":95.5338,"MEAN_ANOMALY":264.5955,"EPHEMERIS_TYPE":0,"CLASSIFICATION_TYPE":"U","NORAD_CAT_ID":49210,"ELEMENT_SET_NO":999,"REV_AT_EPOCH":22589,"BSTAR":-0.00071224,"MEAN_MOTION_DOT":-2.47e-06,"MEAN_MOTION_DDOT":0.0},{"OBJECT_NAME":"ONEWEB-0345","OBJECT_ID":"2021-083AB","EPOCH":"2026-05-10T02:22:11.845344","MEAN_MOTION":13.13469185,"ECCENTRICITY":0.0001462,"INCLINATION":87.8954,"RA_OF_ASC_NODE":327.8087,"ARG_OF_PERICENTER":93.3169,"MEAN_ANOMALY":266.8127,"EPHEMERIS_TYPE":0,"CLASSIFICATION_TYPE":"U","NORAD_CAT_ID":49211,"ELEMENT_SET_NO":999,"REV_AT_EPOCH":22590,"BSTAR":-0.00074872,"MEAN_MOTION_DOT":-2.61e-06,"MEAN_MOTION_DDOT":0.0},{"OBJECT_NAME":"ONEWEB-0346","OBJECT_ID":"2021-083AC","EPOCH":"2026-05-10T01:19:38.535168","MEAN_MOTION":13.18684368,"ECCENTRICITY":0.0002229,"INCLINATION":87.9177,"RA_OF_ASC_NODE":343.0481,"ARG_OF_PERICENTER":101.2361,"MEAN_ANOMALY":258.9022,"EPHEMERIS_TYPE":0,"CLASSIFICATION_TYPE":"U","NORAD_CAT_ID":49212,"ELEMENT_SET_NO":999,"REV_AT_EPOCH":22495,"BSTAR":-5.205600000000001e-06,"MEAN_MOTION_DOT":1.1e-07,"MEAN_MOTION_DDOT":0.0},{"OBJECT_NAME":"ONEWEB-0348","OBJECT_ID":"2021-083AD","EPOCH":"2026-05-10T03:50:03.562080","MEAN_MOTION":13.20853906,"ECCENTRICITY":0.0001953,"INCLINATION":87.9158,"RA_OF_ASC_NODE":282.0257,"ARG_OF_PERICENTER":113.3886,"MEAN_ANOMALY":246.7453,"EPHEMERIS_TYPE":0,"CLASSIFICATION_TYPE":"U","NORAD_CAT_ID":49213,"ELEMENT_SET_NO":999,"REV_AT_EPOCH":23179,"BSTAR":0.00044657000000000003,"MEAN_MOTION_DOT":1.95e-06,"MEAN_MOTION_DDOT":0.0},{"OBJECT_NAME":"ONEWEB-0350","OBJECT_ID":"2021-083AE","EPOCH":"2026-05-10T02:35:36.655296","MEAN_MOTION":13.13470967,"ECCENTRICITY":0.0001481,"INCLINATION":87.8956,"RA_OF_ASC_NODE":327.8077,"ARG_OF_PERICENTER":97.8389,"MEAN_ANOMALY":262.2908,"EPHEMERIS_TYPE":0,"CLASSIFICATION_TYPE":"U","NORAD_CAT_ID":49214,"ELEMENT_SET_NO":999,"REV_AT_EPOCH":22593,"BSTAR":-0.0006874,"MEAN_MOTION_DOT":-2.38e-06,"MEAN_MOTION_DDOT":0.0},{"OBJECT_NAME":"ONEWEB-0351","OBJECT_ID":"2021-083AF","EPOCH":"2026-05-09T22:13:18.744960","MEAN_MOTION":13.20903122,"ECCENTRICITY":0.0001026,"INCLINATION":87.916,"RA_OF_ASC_NODE":282.0708,"ARG_OF_PERICENTER":70.8092,"MEAN_ANOMALY":289.3152,"EPHEMERIS_TYPE":0,"CLASSIFICATION_TYPE":"U","NORAD_CAT_ID":49215,"ELEMENT_SET_NO":999,"REV_AT_EPOCH":23172,"BSTAR":0.0041291,"MEAN_MOTION_DOT":1.695e-05,"MEAN_MOTION_DDOT":0.0},{"OBJECT_NAME":"ONEWEB-0352","OBJECT_ID":"2021-083AG","EPOCH":"2026-05-10T02:07:34.511232","MEAN_MOTION":13.13468458,"ECCENTRICITY":0.0001551,"INCLINATION":87.8949,"RA_OF_ASC_NODE":327.8239,"ARG_OF_PERICENTER":75.9978,"MEAN_ANOMALY":284.1323,"EPHEMERIS_TYPE":0,"CLASSIFICATION_TYPE":"U","NORAD_CAT_ID":49216,"ELEMENT_SET_NO":999,"REV_AT_EPOCH":22602,"BSTAR":0.00043218,"MEAN_MOTION_DOT":1.71e-06,"MEAN_MOTION_DDOT":0.0},{"OBJECT_NAME":"ONEWEB-0354","OBJECT_ID":"2021-083AH","EPOCH":"2026-05-10T04:17:58.610112","MEAN_MOTION":13.20688798,"ECCENTRICITY":0.0001796,"INCLINATION":87.9156,"RA_OF_ASC_NODE":282.0193,"ARG_OF_PERICENTER":110.5537,"MEAN_ANOMALY":249.5789,"EPHEMERIS_TYPE":0,"CLASSIFICATION_TYPE":"U","NORAD_CAT_ID":49217,"ELEMENT_SET_NO":999,"REV_AT_EPOCH":23179,"BSTAR":-0.00034609,"MEAN_MOTION_DOT":-1.28e-06,"MEAN_MOTION_DDOT":0.0},{"OBJECT_NAME":"ONEWEB-0355","OBJECT_ID":"2021-083AJ","EPOCH":"2026-05-10T00:59:31.989408","MEAN_MOTION":13.13471112,"ECCENTRICITY":0.0001537,"INCLINATION":87.8936,"RA_OF_ASC_NODE":327.8376,"ARG_OF_PERICENTER":86.4568,"MEAN_ANOMALY":273.6737,"EPHEMERIS_TYPE":0,"CLASSIFICATION_TYPE":"U","NORAD_CAT_ID":49218,"ELEMENT_SET_NO":999,"REV_AT_EPOCH":22589,"BSTAR":-0.0006652,"MEAN_MOTION_DOT":-2.3e-06,"MEAN_MOTION_DDOT":0.0},{"OBJECT_NAME":"ONEWEB-0357","OBJECT_ID":"2021-083AK","EPOCH":"2026-05-10T04:13:19.029216","MEAN_MOTION":13.20715939,"ECCENTRICITY":0.0001707,"INCLINATION":87.9157,"RA_OF_ASC_NODE":282.0144,"ARG_OF_PERICENTER":94.3964,"MEAN_ANOMALY":265.7365,"EPHEMERIS_TYPE":0,"CLASSIFICATION_TYPE":"U","NORAD_CAT_ID":49219,"ELEMENT_SET_NO":999,"REV_AT_EPOCH":23179,"BSTAR":-0.0005004100000000001,"MEAN_MOTION_DOT":-1.9e-06,"MEAN_MOTION_DDOT":0.0},{"OBJECT_NAME":"ONEWEB-0332","OBJECT_ID":"2021-090A","EPOCH":"2026-05-10T03:50:02.076000","MEAN_MOTION":13.14503205,"ECCENTRICITY":0.0001845,"INCLINATION":87.8931,"RA_OF_ASC_NODE":297.2965,"ARG_OF_PERICENTER":87.3988,"MEAN_ANOMALY":272.7353,"EPHEMERIS_TYPE":0,"CLASSIFICATION_TYPE":"U","NORAD_CAT_ID":49279,"ELEMENT_SET_NO":999,"REV_AT_EPOCH":22258,"BSTAR":0.00032661,"MEAN_MOTION_DOT":1.34e-06,"MEAN_MOTION_DDOT":0.0},{"OBJECT_NAME":"ONEWEB-0347","OBJECT_ID":"2021-090B","EPOCH":"2026-05-09T22:32:06.227808","MEAN_MOTION":13.20793049,"ECCENTRICITY":0.0001924,"INCLINATION":87.9158,"RA_OF_ASC_NODE":282.0702,"ARG_OF_PERICENTER":92.0786,"MEAN_ANOMALY":268.0568,"EPHEMERIS_TYPE":0,"CLASSIFICATION_TYPE":"U","NORAD_CAT_ID":49280,"ELEMENT_SET_NO":999,"REV_AT_EPOCH":22599,"BSTAR":0.0037585,"MEAN_MOTION_DOT":1.542e-05,"MEAN_MOTION_DDOT":0.0},{"OBJECT_NAME":"ONEWEB-0349","OBJECT_ID":"2021-090C","EPOCH":"2026-05-10T02:55:56.004672","MEAN_MOTION":13.2074515,"ECCENTRICITY":0.0001817,"INCLINATION":87.9156,"RA_OF_ASC_NODE":282.0339,"ARG_OF_PERICENTER":98.1752,"MEAN_ANOMALY":261.9588,"EPHEMERIS_TYPE":0,"CLASSIFICATION_TYPE":"U","NORAD_CAT_ID":49281,"ELEMENT_SET_NO":999,"REV_AT_EPOCH":22480,"BSTAR":0.00030181,"MEAN_MOTION_DOT":1.36e-06,"MEAN_MOTION_DDOT":0.0},{"OBJECT_NAME":"ONEWEB-0353","OBJECT_ID":"2021-090D","EPOCH":"2026-05-10T03:38:36.950784","MEAN_MOTION":13.14504016,"ECCENTRICITY":0.0001909,"INCLINATION":87.8933,"RA_OF_ASC_NODE":297.2928,"ARG_OF_PERICENTER":87.9287,"MEAN_ANOMALY":272.2062,"EPHEMERIS_TYPE":0,"CLASSIFICATION_TYPE":"U","NORAD_CAT_ID":49282,"ELEMENT_SET_NO":999,"REV_AT_EPOCH":22258,"BSTAR":0.0006693700000000001,"MEAN_MOTION_DOT":2.61e-06,"MEAN_MOTION_DDOT":0.0}]