ONEWEB-0342             
1 49208U 21083Y   26130.16945403 -.00000032  00000+0 -11020-3 0  9994
2 49208  87.9156 282.0202 0001783  94.7361 265.3976 13.20771126231763
ONEWEB-0343             
1 49209U 21083Z   26130.13455299  .00000004  00000+0 -22852-4 0  9995
2 49209  87.9186 343.0296 0001611  73.5306 286.6003 13.18684329225026
ONEWEB-0344             
1 49210U 21083AA  26130.10722919 -.00000247  00000+0 -71224-3 0  9996
2 49210  87.8938 327.8321 0001438  95.5338 264.5955 13.13470855225895
ONEWEB-0345             
1 49211U 21083AB  26130.09874821 -.00000261  00000+0 -74872-3 0  9993
2 49211  87.8954 327.8087 0001462  93.3169 266.8127 13.13469185225900
ONEWEB-0346             
1 49212U 21083AC  26130.05530712  .00000011  00000+0 -52056-5 0  9992
2 49212  87.9177 343.0481 0002229 101.2361 258.9022 13.18684368224959
ONEWEB-0348             
1 49213U 21083AD  26130.15976345  .00000195  00000+0  44657-3 0  9998
2 49213  87.9158 282.0257 0001953 113.3886 246.7453 13.20853906231793
ONEWEB-0350             
1 49214U 21083AE  26130.10806314 -.00000238  00000+0 -68740-3 0  9991
2 49214  87.8956 327.8077 0001481  97.8389 262.2908 13.13470967225938
ONEWEB-0351             
1 49215U 21083AF  26129.92591140  .00001695  00000+0  41291-2 0  9995
2 49215  87.9160 282.0708 0001026  70.8092 289.3152 13.20903122231724
ONEWEB-0352             
1 49216U 21083AG  26130.08859388  .00000171  00000+0  43218-3 0  9996
2 49216  87.8949 327.8239 0001551  75.9978 284.1323 13.13468458226028
ONEWEB-0354             
1 49217U 21083AH  26130.17915058 -.00000128  00000+0 -34609-3 0  9992
2 49217  87.9156 282.0193 0001796 110.5537 249.5789 13.20688798231799
ONEWEB-0355             
1 49218U 21083AJ  26130.04134247 -.00000230  00000+0 -66520-3 0  9993
2 49218  87.8936 327.8376 0001537  86.4568 273.6737 13.13471112225891
ONEWEB-0357             
1 49219U 21083AK  26130.17591469 -.00000190  00000+0 -50041-3 0  9997
2 49219  87.9157 282.0144 0001707  94.3964 265.7365 13.20715939231791
ONEWEB-0332             
1 49279U 21090A   26130.15974625  .00000134  00000+0  32661-3 0  9992
2 49279  87.8931 297.2965 0001845  87.3988 272.7353 13.14503205222582
ONEWEB-0347             
1 49280U 21090B   26129.93896097  .00001542  00000+0  37585-2 0  9997
2 49280  87.9158 282.0702 0001924  92.0786 268.0568 13.20793049225992
ONEWEB-0349             
1 49281U 21090C   26130.12217598  .00000136  00000+0  30181-3 0  9998
2 49281  87.9156 282.0339 0001817  98.1752 261.9588 13.20745150224801
ONEWEB-0353             
1 49282U 21090D   26130.15181656  .00000261  00000+0  66937-3 0  9994
2 49282  87.8933 297.2928 0001909  87.9287 272.2062 13.14504016222589
